COSMOS 2425 (716)       
1 29670U 06062A   18160.65039250 -.00000026  00000-0  10000-3 0  9997
2 29670  65.2854 292.7916 0020592 349.9818  59.9981  2.13104986 89150
COSMOS 2426 (717)       
1 29671U 06062B   18160.74660490 -.00000026  00000-0  10000-3 0  9994
2 29671  65.3012 292.8851 0018560 160.4219 179.1746  2.13102928 89158
COSMOS 2433 (720)       
1 32275U 07052A   18160.51927390 -.00000046  00000-0  10000-3 0  9990
2 32275  65.6841  53.6198 0002237 300.6777 200.0730  2.13104696 82663
COSMOS 2432 (719)       
1 32276U 07052B   18160.89550985 -.00000044  00000-0  10000-3 0  9992
2 32276  65.6967  53.6832 0012524 338.9833  42.3890  2.13103996 82672
COSMOS 2434 (721)       
1 32393U 07065A   18161.42927689 -.00000027  00000-0  00000+0 0  9991
2 32393  64.8986 291.7427 0005479 110.2215 256.7318  2.13102988 81399
COSMOS 2436 (723)       
1 32395U 07065C   18161.41147558 -.00000027  00000-0  10000-3 0  9996
2 32395  64.9081 291.7936 0014791   5.8411  37.9194  2.13104379 81327
COSMOS 2456 (730)       
1 36111U 09070A   18160.74229654  .00000123  00000-0  00000+0 0  9998
2 36111  64.1857 171.3563 0006589 300.9202  71.2354  2.13102976 66044
COSMOS 2457 (733)       
1 36112U 09070B   18160.68384106  .00000123  00000-0  00000-0 0  9997
2 36112  64.1681 171.2690 0005769 195.0372 259.1875  2.13101580 66045
COSMOS 2458 (734)       
1 36113U 09070C   18160.62286212  .00000123  00000-0  10000-3 0  9995
2 36113  64.1745 171.2827 0002952 315.6899 139.6326  2.13096858 66048
COSMOS 2459 (731)       
1 36400U 10007A   18160.92100124 -.00000044  00000-0  10000-3 0  9999
2 36400  65.5934  52.6669 0028434 353.0784 314.8594  2.13102235 64397
COSMOS 2461 (735)       
1 36401U 10007B   18160.42114374 -.00000046  00000-0  10000-3 0  9999
2 36401  65.5869  52.6593 0007925  55.6312 139.4296  2.13102328 64387
COSMOS 2460 (732)       
1 36402U 10007C   18161.56439252 -.00000042  00000-0  10000-3 0  9997
2 36402  65.5769  52.5878 0002038  16.2697  16.4863  2.13101637 64411
COSMOS 2464 (736)       
1 37139U 10041C   18161.27244244 -.00000028  00000-0  00000+0 0  9995
2 37139  64.5020 291.5570 0023760  16.1848  98.2479  2.13102718 60478
COSMOS 2471 (701K)      
1 37372U 11009A   18161.26631986 -.00000043  00000-0  00000+0 0  9998
2 37372  65.5734  52.5442 0007252 239.5235  68.3731  2.13107506 56678
COSMOS 2474 (742)       
1 37829U 11055A   18160.84963506  .00000124  00000-0  00000-0 0  9995
2 37829  64.5101 172.0668 0010947 253.7191  58.9701  2.13101936 52033
COSMOS 2476 (744)       
1 37867U 11064A   18160.65828709  .00000124  00000-0  00000-0 0  9991
2 37867  64.4894 172.1358 0020504 245.5080 326.4261  2.13101969 51383
COSMOS 2477 (745)       
1 37868U 11064B   18160.63410262  .00000124  00000-0  00000-0 0  9991
2 37868  64.4976 172.1848 0018331 247.1437 125.1367  2.13101815 51345
COSMOS 2475 (743)       
1 37869U 11064C   18160.68861130  .00000124  00000-0  00000-0 0  9991
2 37869  64.5049 172.1775 0022993 268.7766 102.0201  2.13102073 51359
COSMOS 2485 (747)       
1 39155U 13019A   18160.55763289  .00000124  00000-0  00000+0 0  9994
2 39155  64.6588 172.2470 0020842 241.0531 298.5417  2.13102011 39859
COSMOS 2492 (754)       
1 39620U 14012A   18161.24764241 -.00000043  00000-0  10000-3 0  9997
2 39620  65.4667  52.4854 0015763 334.0136  49.7002  2.13103409 32826
COSMOS 2500 (755)       
1 40001U 14032A   18160.69354917 -.00000046  00000-0  00000-0 0  9996
2 40001  65.4064  52.4742 0004259 213.9523 326.9637  2.13102822 31024
COSMOS 2501 (702K)      
1 40315U 14075A   18161.21527103 -.00000028  00000-0  00000+0 0  9998
2 40315  64.2271 292.7748 0015435 203.3476 179.5202  2.13098637 27441
COSMOS 2514 (751)       
1 41330U 16008A   18160.74820625 -.00000046  00000-0  00000-0 0  9997
2 41330  65.2097  52.5271 0007732 222.0204 181.6949  2.13103283 18195
COSMOS 2516 (753)       
1 41554U 16032A   18160.64377748 -.00000027  00000-0  00000-0 0  9993
2 41554  64.4484 292.6573 0011479 211.5917   3.1594  2.13101637 15791
COSMOS 2522 (752)       
1 42939U 17055A   18161.44053086 -.00000028  00000-0  00000+0 0  9992
2 42939  64.6778 292.5940 0006158 238.3174  94.1049  2.13101883  5566
